[{"OBJECT_NAME":"STARLINK-33850","OBJECT_ID":"2025-085R","EPOCH":"2026-03-09T06:04:37.640352","MEAN_MOTION":15.27577816,"ECCENTRICITY":0.00015246,"INCLINATION":42.998,"RA_OF_ASC_NODE":33.34,"ARG_OF_PERICENTER":287.4513,"MEAN_ANOMALY":72.6172,"EPHEMERIS_TYPE":0,"CLASSIFICATION_TYPE":"U","NORAD_CAT_ID":63679,"ELEMENT_SET_NO":999,"REV_AT_EPOCH":4879,"BSTAR":0.0011759475,"MEAN_MOTION_DOT":0.00032237,"MEAN_MOTION_DDOT":0},{"OBJECT_NAME":"CZ-6A DEB","OBJECT_ID":"2024-140NC","EPOCH":"2026-03-09T01:19:44.598720","MEAN_MOTION":14.85954551,"ECCENTRICITY":0.01874643,"INCLINATION":89.0262,"RA_OF_ASC_NODE":281.6645,"ARG_OF_PERICENTER":160.2054,"MEAN_ANOMALY":200.6578,"EPHEMERIS_TYPE":0,"CLASSIFICATION_TYPE":"U","NORAD_CAT_ID":61086,"ELEMENT_SET_NO":999,"REV_AT_EPOCH":8276,"BSTAR":0.00091551765,"MEAN_MOTION_DOT":0.00011041,"MEAN_MOTION_DDOT":0}]
